{
    "links": {
        "self": "http://www.neowsapp.com/rest/v1/neo/3313976?api_key=iIulBulltgU6a56xZRHN4H3l9WmuAYTsLGpBGhQ2"
    },
    "id": "3313976",
    "neo_reference_id": "3313976",
    "name": "(2006 BX39)",
    "designation": "2006 BX39",
    "nasa_jpl_url": "http://ssd.jpl.nasa.gov/sbdb.cgi?sstr=3313976",
    "absolute_magnitude_h": 21.4,
    "estimated_diameter": {
        "kilometers": {
            "estimated_diameter_min": 0.1394938229,
            "estimated_diameter_max": 0.3119176705
        },
        "meters": {
            "estimated_diameter_min": 139.4938229344,
            "estimated_diameter_max": 311.9176705226
        },
        "miles": {
            "estimated_diameter_min": 0.0866774163,
            "estimated_diameter_max": 0.1938165949
        },
        "feet": {
            "estimated_diameter_min": 457.6569140361,
            "estimated_diameter_max": 1023.3519701574
        }
    },
    "is_potentially_hazardous_asteroid": true,
    "close_approach_data": [
        {
            "close_approach_date": "1919-08-11",
            "close_approach_date_full": "1919-Aug-11 06:24",
            "epoch_date_close_approach": -1590255360000,
            "relative_velocity": {
                "kilometers_per_second": "28.8815858914",
                "kilometers_per_hour": "103973.7092089219",
                "miles_per_hour": "64605.2194803993"
            },
            "miss_distance": {
                "astronomical": "0.3627711881",
                "lunar": "141.1179921709",
                "kilometers": "54269797.037129347",
                "miles": "33721688.1834131086"
            },
            "orbiting_body": "Earth"
        },
        {
            "close_approach_date": "2006-02-10",
            "close_approach_date_full": "2006-Feb-10 02:04",
            "epoch_date_close_approach": 1139537040000,
            "relative_velocity": {
                "kilometers_per_second": "19.9687695656",
                "kilometers_per_hour": "71887.5704360779",
                "miles_per_hour": "44668.1406412396"
            },
            "miss_distance": {
                "astronomical": "0.0211408794",
                "lunar": "8.2238020866",
                "kilometers": "3162630.528166878",
                "miles": "1965167.4841757964"
            },
            "orbiting_body": "Earth"
        }
    ],
    "orbital_data": {
        "orbit_id": "20",
        "orbit_determination_date": "2017-04-06 09:09:17",
        "first_observation_date": "2006-01-26",
        "last_observation_date": "2006-02-10",
        "data_arc_in_days": 15,
        "observations_used": 123,
        "orbit_uncertainty": "8",
        "minimum_orbit_intersection": ".00877544",
        "jupiter_tisserand_invariant": "3.637",
        "epoch_osculation": "2453768.5",
        "eccentricity": ".6373999429093651",
        "semi_major_axis": "1.903075392748601",
        "inclination": "14.34685329373428",
        "ascending_node_longitude": "140.4327829295937",
        "orbital_period": "958.9200900611955",
        "perihelion_distance": ".6900552460584251",
        "perihelion_argument": "79.11969493508587",
        "aphelion_distance": "3.116095539438776",
        "perihelion_time": "2453822.292882553522",
        "mean_anomaly": "339.8049515074483",
        "mean_motion": ".3754223148844716",
        "equinox": "J2000",
        "orbit_class": {
            "orbit_class_type": "APO",
            "orbit_class_description": "Near-Earth asteroid orbits which cross the Earth’s orbit similar to that of 1862 Apollo",
            "orbit_class_range": "a (semi-major axis) > 1.0 AU; q (perihelion) < 1.017 AU"
        }
    },
    "is_sentry_object": false
}